{
    "links": {
        "self": "http://www.neowsapp.com/rest/v1/neo/3744854?api_key=iIulBulltgU6a56xZRHN4H3l9WmuAYTsLGpBGhQ2"
    },
    "id": "3744854",
    "neo_reference_id": "3744854",
    "name": "(2016 DK2)",
    "designation": "2016 DK2",
    "nasa_jpl_url": "http://ssd.jpl.nasa.gov/sbdb.cgi?sstr=3744854",
    "absolute_magnitude_h": 28.9,
    "estimated_diameter": {
        "kilometers": {
            "estimated_diameter_min": 0.004411182,
            "estimated_diameter_max": 0.0098637028
        },
        "meters": {
            "estimated_diameter_min": 4.411182,
            "estimated_diameter_max": 9.8637028131
        },
        "miles": {
            "estimated_diameter_min": 0.0027409806,
            "estimated_diameter_max": 0.0061290189
        },
        "feet": {
            "estimated_diameter_min": 14.4723823528,
            "estimated_diameter_max": 32.3612307372
        }
    },
    "is_potentially_hazardous_asteroid": false,
    "close_approach_data": [
        {
            "close_approach_date": "2016-02-26",
            "close_approach_date_full": "2016-Feb-26 07:19",
            "epoch_date_close_approach": 1456471140000,
            "relative_velocity": {
                "kilometers_per_second": "18.731414068",
                "kilometers_per_hour": "67433.090644683",
                "miles_per_hour": "41900.3001286365"
            },
            "miss_distance": {
                "astronomical": "0.0021222279",
                "lunar": "0.8255466531",
                "kilometers": "317480.773494573",
                "miles": "197273.4049601874"
            },
            "orbiting_body": "Earth"
        },
        {
            "close_approach_date": "2016-02-26",
            "close_approach_date_full": "2016-Feb-26 12:00",
            "epoch_date_close_approach": 1456488000000,
            "relative_velocity": {
                "kilometers_per_second": "19.2568140586",
                "kilometers_per_hour": "69324.5306108916",
                "miles_per_hour": "43075.5673676398"
            },
            "miss_distance": {
                "astronomical": "0.0035930514",
                "lunar": "1.3976969946",
                "kilometers": "537512.836240518",
                "miles": "333994.9888864284"
            },
            "orbiting_body": "Moon"
        }
    ],
    "orbital_data": {
        "orbit_id": "4",
        "orbit_determination_date": "2018-05-10 06:25:52",
        "first_observation_date": "2016-02-27",
        "last_observation_date": "2016-03-01",
        "data_arc_in_days": 3,
        "observations_used": 28,
        "orbit_uncertainty": "8",
        "minimum_orbit_intersection": ".000616401",
        "jupiter_tisserand_invariant": "3.116",
        "epoch_osculation": "2457446.5",
        "eccentricity": ".7134876729655665",
        "semi_major_axis": "2.405494685462529",
        "inclination": ".8839803901012319",
        "ascending_node_longitude": "159.1052334212949",
        "orbital_period": "1362.71497823465",
        "perihelion_distance": ".689203880000832",
        "perihelion_argument": "283.3350335511115",
        "aphelion_distance": "4.121785490924228",
        "perihelion_time": "2457401.931027643741",
        "mean_anomaly": "11.77416430032842",
        "mean_motion": ".2641785008236773",
        "equinox": "J2000",
        "orbit_class": {
            "orbit_class_type": "APO",
            "orbit_class_description": "Near-Earth asteroid orbits which cross the Earth’s orbit similar to that of 1862 Apollo",
            "orbit_class_range": "a (semi-major axis) > 1.0 AU; q (perihelion) < 1.017 AU"
        }
    },
    "is_sentry_object": false
}